[Satellite]
VERSION=1.1
NAME=IRIDIUM 28 [-]
NICKNAME=IRIDIUM 28 [-]
TLE1=1 24948U 97051E   20157.65503749  .00000093  00000-0  25470-4 0  9997
TLE2=2 24948  86.3993 191.8578 0002143  80.6870 279.4568 14.35705212190107
STATUS=2
